     2.100          NAVIGATION                              RINEX VERSION / TYPE
fic2rin                                 07/26/2015 00:15:49 PGM / RUN BY / DATE
                                                            END OF HEADER
32 15  7 25  9 59 44.0 -.906782224774D-04  .102318153949D-10  .000000000000D+00
     .900000000000D+01 -.471875000000D+01  .480377152494D-08  .235299572765D+01
    -.253319740295D-06  .112805374665D-01  .881403684616D-05  .515372252464D+04
     .554384000000D+06 -.199303030968D-06 -.181006768367D+01  .171363353729D-06
     .946592425214D+00  .199781250000D+03  .800524923591D-01 -.806890753096D-08
    -.147863301957D-09  .100000000000D+01  .185400000000D+04  .000000000000D+00
     .240000000000D+01  .000000000000D+00 -.372529029846D-08  .900000000000D+01
     .547206000000D+06  .400000000000D+01
 1 15  7 25 10  0  0.0 -.234507024288D-05  .568434188608D-12  .000000000000D+00
     .114000000000D+03 -.149687500000D+02  .454840374499D-08  .255135013482D+01
    -.741332769394D-06  .451234192587D-02  .673159956932D-05  .515365997124D+04
     .554400000000D+06 -.726431608200D-07 -.293175887893D+01 -.372529029846D-07
     .962883183972D+00  .250562500000D+03  .423174477018D+00 -.806533595362D-08
     .205722854897D-09  .100000000000D+01  .185400000000D+04  .000000000000D+00
     .240000000000D+01  .000000000000D+00  .512227416039D-08  .114000000000D+03
     .547206000000D+06  .400000000000D+01
 2 15  7 25 10  0  0.0  .580310355872D-03  .216004991671D-11  .000000000000D+00
     .370000000000D+02 -.124062500000D+02  .488627496154D-08  .305927392850D+01
    -.642612576485D-06  .146688659443D-01  .658631324768D-05  .515359350014D+04
     .554400000000D+06  .186264514923D-07 -.297059986888D+01 -.173225998878D-06
     .941538504069D+00  .239031250000D+03 -.224678451184D+01 -.800104756146D-08
     .274654297597D-09  .100000000000D+01  .185400000000D+04  .000000000000D+00
     .240000000000D+01  .000000000000D+00 -.204890966415D-07  .370000000000D+02
     .547206000000D+06  .400000000000D+01
 3 15  7 25 10  0  0.0  .106990337372D-04  .375166564481D-11  .000000000000D+00
     .840000000000D+02 -.709375000000D+01  .460876340207D-08 -.188716263112D+01
    -.623986124992D-06  .769037986174D-03  .838562846184D-05  .515363747978D+04
     .554400000000D+06  .633299350739D-07 -.189119332884D+01  .298023223877D-07
     .958978955517D+00  .214062500000D+03 -.251048704683D+01 -.802140555231D-08
    -.121433629627D-09  .100000000000D+01  .185400000000D+04  .000000000000D+00
     .240000000000D+01  .000000000000D+00  .186264514923D-08  .840000000000D+02
     .547206000000D+06  .400000000000D+01
 4 15  7 25 10  0  0.0 -.420259311795D-05 -.318323145621D-11  .000000000000D+00
     .250000000000D+02 -.173125000000D+02  .496484966306D-08  .231871474405D+01
    -.101514160633D-05  .115957403323D-01  .640563666821D-05  .515366530418D+04
     .554400000000D+06  .707805156708D-07 -.295540792399D+01 -.210478901863D-06
     .940608768428D+00  .244406250000D+03  .107664761844D+01 -.818176937496D-08
     .227509476683D-09  .100000000000D+01  .185400000000D+04  .000000000000D+00
     .240000000000D+01  .000000000000D+00 -.651925802231D-08  .250000000000D+02
     .547206000000D+06  .400000000000D+01
 5 15  7 25 10  0  0.0 -.214057508856D-03  .432009983342D-11  .000000000000D+00
     .660000000000D+02 -.189375000000D+02  .492199073496D-08 -.725817358966D+00
    -.858679413795D-06  .423519953620D-02  .817328691483D-05  .515360265541D+04
     .554400000000D+06  .931322574615D-07 -.189900972647D+01 -.298023223877D-07
     .946181238441D+00  .209312500000D+03  .376236905514D+00 -.822927135361D-08
    -.165721188667D-09  .100000000000D+01  .185400000000D+04  .000000000000D+00
     .240000000000D+01  .000000000000D+00 -.107102096081D-07  .660000000000D+02
     .547206000000D+06  .400000000000D+01
 7 15  7 25 10  0  0.0  .476375687867D-03  .204636307899D-11  .000000000000D+00
     .720000000000D+02  .430937500000D+02  .467483758289D-08  .190771611811D+01
     .229850411415D-05  .872679939494D-02  .462308526039D-05  .515370613289D+04
     .554400000000D+06 -.208616256714D-06  .227972964058D+00  .147148966789D-06
     .969975772161D+00  .298812500000D+03 -.273388309467D+01 -.831356057888D-08
    -.221437795202D-10  .100000000000D+01  .185400000000D+04  .000000000000D+00
     .240000000000D+01  .000000000000D+00 -.111758708954D-07  .720000000000D+02
     .547206000000D+06  .400000000000D+01
 8 15  7 25 10  0  0.0 -.273343175650D-06 -.227373675443D-12  .000000000000D+00
     .580000000000D+02 -.254062500000D+02  .427017787005D-08  .626055767153D+00
    -.123493373394D-05  .137499906123D-02  .855885446072D-05  .516402553177D+04
     .554400000000D+06 -.104308128357D-06  .229414731852D+01 -.745058059692D-07
     .959942521139D+00  .215156250000D+03 -.185123660053D+01 -.784639826255D-08
     .853606984729D-10  .100000000000D+01  .185400000000D+04  .000000000000D+00
     .240000000000D+02  .630000000000D+02  .745058059692D-08  .580000000000D+02
     .547206000000D+06  .400000000000D+01
 9 15  7 25 10  0  0.0 -.888342037797D-05 -.181898940355D-11  .000000000000D+00
     .870000000000D+02  .728750000000D+02  .463769317854D-08 -.249911399545D+01
     .383704900742D-05  .417840201408D-03  .919960439205D-05  .515377386475D+04
     .554400000000D+06  .242143869400D-07 -.848401280347D+00  .000000000000D+00
     .956858154400D+00  .204562500000D+03  .280138936312D+01 -.803997775449D-08
     .700029159024D-10  .100000000000D+01  .185400000000D+04  .000000000000D+00
     .240000000000D+01  .000000000000D+00  .931322574615D-09  .870000000000D+02
     .547206000000D+06  .400000000000D+01
10 15  7 25 10  0  0.0 -.183907803148D-03 -.147792889038D-11  .000000000000D+00
     .890000000000D+02 -.128750000000D+02  .514950021164D-08 -.451398769108D+00
    -.474974513054D-06  .148906660033D-01  .840798020363D-05  .515369389915D+04
     .554400000000D+06  .242143869400D-07 -.188425968378D+01  .182539224625D-06
     .940967941149D+00  .209687500000D+03  .939385818653D+00 -.851714048737D-08
    -.163221084528D-09  .100000000000D+01  .185400000000D+04  .000000000000D+00
     .240000000000D+01  .630000000000D+02 -.279396772385D-08  .890000000000D+02
     .547206000000D+06  .400000000000D+01
11 15  7 25 10  0  0.0 -.593589153141D-03 -.238742359215D-11  .000000000000D+00
     .640000000000D+02 -.112500000000D+02  .599024951794D-08  .196234090573D+01
    -.838190317154D-06  .160622900585D-01  .625662505627D-05  .515374471092D+04
     .554400000000D+06  .236555933952D-06  .299659060106D+01 -.314787030220D-06
     .894021853999D+00  .221250000000D+03  .142683297974D+01 -.867321841722D-08
     .307869966877D-09  .100000000000D+01  .185400000000D+04  .000000000000D+00
     .240000000000D+01  .000000000000D+00 -.121071934700D-07  .640000000000D+02
     .547206000000D+06  .400000000000D+01
12 15  7 25 10  0  0.0  .312973279506D-03  .329691829393D-11  .000000000000D+00
     .520000000000D+02 -.495312500000D+02  .392730644522D-08  .136234578214D+01
    -.256486237049D-05  .555774173699D-02  .634230673313D-05  .515364237404D+04
     .554400000000D+06 -.651925802231D-07  .129777717461D+01  .465661287308D-07
     .989760134362D+00  .273875000000D+03  .641809851488D+00 -.788961434839D-08
    -.296440919383D-09  .100000000000D+01  .185400000000D+04  .000000000000D+00
     .240000000000D+01  .000000000000D+00 -.125728547573D-07  .520000000000D+02
     .547206000000D+06  .400000000000D+01
13 15  7 25 10  0  0.0 -.135200098157D-03 -.329691829393D-11  .000000000000D+00
     .960000000000D+02  .748125000000D+02  .421696136765D-08  .268630710718D+01
     .375881791115D-05  .486209406517D-02  .938028097153D-05  .515368687439D+04
     .554400000000D+06  .104308128357D-06 -.732391297346D+00  .167638063431D-07
     .973598791189D+00  .203281250000D+03  .209666950357D+01 -.780639659632D-08
     .625026034843D-10  .100000000000D+01  .185400000000D+04  .000000000000D+00
     .240000000000D+01  .000000000000D+00 -.111758708954D-07  .960000000000D+02
     .547206000000D+06  .400000000000D+01
14 15  7 25 10  0  0.0  .464939512312D-04 -.261479726760D-11  .000000000000D+00
     .130000000000D+02  .600937500000D+02  .440911222865D-08 -.165275319763D+01
     .330805778503D-05  .838673335966D-02  .829808413982D-05  .515363027191D+04
     .554400000000D+06  .122934579849D-06 -.767383456624D+00  .875443220139D-07
     .966066838962D+00  .220437500000D+03 -.196905256175D+01 -.786782772661D-08
     .975040614355D-10  .100000000000D+01  .185400000000D+04  .000000000000D+00
     .240000000000D+01  .000000000000D+00 -.931322574615D-08  .130000000000D+02
     .547206000000D+06  .400000000000D+01
15 15  7 25 10  0  0.0 -.262388959527D-03 -.204636307899D-11  .000000000000D+00
     .740000000000D+02  .579375000000D+02  .516128641687D-08 -.231417813268D+01
     .273808836937D-05  .724989676382D-02  .939145684242D-05  .515368400002D+04
     .554400000000D+06  .242143869400D-07 -.893437465039D+00 -.160187482834D-06
     .932673726679D+00  .184968750000D+03  .391793457873D+00 -.822605693400D-08
     .892894335490D-10  .100000000000D+01  .185400000000D+04  .000000000000D+00
     .240000000000D+01  .000000000000D+00 -.107102096081D-07  .740000000000D+02
     .547206000000D+06  .400000000000D+01
16 15  7 25 10  0  0.0 -.104800332338D-03  .409272615798D-11  .000000000000D+00
     .350000000000D+02 -.417500000000D+02  .387730436243D-08 -.665099185468D+00
    -.226125121117D-05  .811021449044D-02  .670552253723D-05  .515359345055D+04
     .554400000000D+06  .150874257088D-06  .131647873898D+01  .465661287308D-07
     .990295192261D+00  .266093750000D+03  .324172977940D+00 -.788211403597D-08
    -.256439253153D-09  .100000000000D+01  .185400000000D+04  .000000000000D+00
     .240000000000D+01  .000000000000D+00 -.102445483208D-07  .350000000000D+02
     .547206000000D+06  .400000000000D+01
